{
    "CCSDS_OMM_VERS": "3.0",
    "COMMENT": "GENERATED VIA SPACE-TRACK.ORG API",
    "CREATION_DATE": "2025-05-22T17:14:14",
    "ORIGINATOR": "18 SPCS",
    "OBJECT_NAME": "BEIDOU 3M19",
    "OBJECT_ID": "2019-090A",
    "CENTER_NAME": "EARTH",
    "REF_FRAME": "TEME",
    "TIME_SYSTEM": "UTC",
    "MEAN_ELEMENT_THEORY": "SGP4",
    "EPOCH": "2025-05-22T07:20:43.458720",
    "MEAN_MOTION": "1.86231442",
    "ECCENTRICITY": "0.00188020",
    "INCLINATION": "56.2137",
    "RA_OF_ASC_NODE": "75.7465",
    "ARG_OF_PERICENTER": "291.3885",
    "MEAN_ANOMALY": "256.6116",
    "EPHEMERIS_TYPE": "0",
    "CLASSIFICATION_TYPE": "U",
    "NORAD_CAT_ID": "44864",
    "ELEMENT_SET_NO": "999",
    "REV_AT_EPOCH": "3695",
    "BSTAR": "0.00000000000000",
    "MEAN_MOTION_DOT": "-0.00000019",
    "MEAN_MOTION_DDOT": "0.0000000000000",
    "SEMIMAJOR_AXIS": "27906.144",
    "PERIOD": "773.231",
    "APOAPSIS": "21580.479",
    "PERIAPSIS": "21475.540",
    "OBJECT_TYPE": "PAYLOAD",
    "RCS_SIZE": "LARGE",
    "COUNTRY_CODE": "PRC",
    "LAUNCH_DATE": "2019-12-16",
    "SITE": "XSC",
    "DECAY_DATE": null,
    "FILE": "4736220",
    "GP_ID": "288145341",
    "TLE_LINE0": "0 BEIDOU 3M19",
    "TLE_LINE1": "1 44864U 19090A   25142.30605855 -.00000019  00000-0  00000-0 0  9992",
    "TLE_LINE2": "2 44864  56.2137  75.7465 0018802 291.3885 256.6116  1.86231442 36952"
}